Site,Address,Area,State,Zip,Map Location
Ramirez Grocery,481 Geneva Avenue,Dorchester,MA,2122,"481 Geneva Avenue
Dorchester, MA 2122
(42.299392257759465, -71.06481870122053)"
Sobrino Market,416 Geneva Avenue,Dorchester,MA,2122,"416 Geneva Avenue
Dorchester, MA 2122
(42.30084625034499, -71.06706823101274)"
Cruz Market,237 Bowdoin Street,Dorchester,MA,2122,"237 Bowdoin Street
Dorchester, MA 2122
(42.305972983667644, -71.06723352015074)"
Tio Supermarket,9 Meridian St,East Boston,MA,2128,"9 Meridian St
East Boston, MA 2128
(42.370489748294005, -71.03891045827538)"
Million Market,99 Chelsea St,East Boston,MA,2128,"99 Chelsea St
East Boston, MA 2128
(42.372405304216386, -71.03582578371487)"
El Paisa Butchery,1010 Bennington St,East Boston,MA,2128,"1010 Bennington St
East Boston, MA 2128
(42.386848530463546, -71.00637235627349)"
Two Brothers Market,75 Marion St,East Boston,MA,2128,"75 Marion St
East Boston, MA 2128
(42.37840378215185, -71.03748053624878)"
Raymond Market,351 Meridian St,East Boston,MA,2128,"351 Meridian St
East Boston, MA 2128
(42.378529687235925, -71.03915327522327)"
Mi Tierra Market,71 Meridian St,East Boston,MA,2128,"71 Meridian St
East Boston, MA 2128
(42.371782749757934, -71.03892842022054)"
Condor Market East Boston, 655 Saratoga Street,East Boston,MA,2128,"655 Saratoga Street
East Boston, MA 2128
(42.38236979230106, -71.0208610651473)"
Las Costas Market,184 Bremen Street,East Boston,MA,2128,"184 Bremen Street
East Boston, MA 2128
(42.37297187709487, -71.03417103118096)"
Mama Supermarket,1178 Blue Hill Ave,Mattapan,MA,2126,"1178 Blue Hill Ave
Mattapan, MA 2126
(42.28399295551594, -71.0914038851256)"
Essential Body Herbs,1282 Blue Hill Ave,Mattapan,MA,2126,"1282 Blue Hill Ave
Mattapan, MA 2126
(42.28020680977255, -71.09266293596664)"
Worlds Best Food Market,645 River St,Mattapan,MA,2126,"645 River St
Mattapan, MA 2126
(42.264945314935346, -71.09953375627049)"
Mattapan Square Mobile,1556 Blue Hill Ave,Mattapan,MA,2126,"1556 Blue Hill Ave
Mattapan, MA 2126
(42.27026030812851, -71.09355326477566)"
7-Eleven,204 N Harvard St,Allston,MA,2134,"204 N Harvard St
Allston, MA 2134
(42.36287915195058, -71.1299621267734)"
Allston Convenience Store,165 Allston St,Allston,MA,2134,"165 Allston St
Allston, MA 2134
(42.347836614649275, -71.13814411252383)"
Brazilian Corner,192 Brighton Ave,Allston,MA,2134,"192 Brighton Ave
Allston, MA 2134
(42.35322276533145, -71.13419362727973)"
La Favorita Market,66 Harvard Ave,Allston,MA,2134,"66 Harvard Ave
Allston, MA 2134
(42.353933229734594, -71.13227807135729)"
Medina Market,72 Brighton Ave,Allston,MA,2134,"72 Brighton Ave
Allston, MA 2134
(42.352542531490414, -71.12872144410521)"
Neighborhood Market,57 Franklin St,Allston,MA,2134,"57 Franklin St
Allston, MA 2134
(42.35756649073295, -71.13297054931985)"
Store 24,1219 Commonwealth Ave,Allston,MA,2134,"1219 Commonwealth Ave
Allston, MA 2134
(42.350709905888216, -71.13062400024394)"
Store 24,157 Brighton Ave,Allston,MA,2134,"157 Brighton Ave
Allston, MA 2134
(42.353054289646714, -71.13209718767884)"
Super Stop & Shop,60 Everett St,Allston,MA,2134,"60 Everett St
Allston, MA 2134
(42.35598279983284, -71.13857259073886)"
T & S Convenience Store,4 Brighton Ave,Allston,MA,2134,"4 Brighton Ave
Allston, MA 2134
(42.35216156533687, -71.12534429851138)"
Tedeschi Food Shops,509 Cambridge St,Allston,MA,2134,"509 Cambridge St
Allston, MA 2134
(42.35322276533145, -71.13833950183476)"
Van Mini Market,109 Franklin St,Allston,MA,2134,"109 Franklin St
Allston, MA 2134
(42.359791515776024, -71.13293739164449)"
777 Convenience Store,215 Trenton St,Boston,MA,2128,"215 Trenton St
Boston, MA 2128
(42.380876917732394, -71.03107736340019)"
7-Eleven,10 Milk St,Boston,MA,2108,"10 Milk St
Boston, MA 2108
(42.35676376546663, -71.05800728414965)"
7-Eleven,125 Tremont St,Boston,MA,2108,"125 Tremont St
Boston, MA 2108
(42.3567236987566, -71.06178868150944)"
7-Eleven,50 Summer St,Boston,MA,2110,"50 Summer St
Boston, MA 2110
(42.35449980261302, -71.05920815647664)"
7-Eleven,70 E India Row,Boston,MA,2110,"70 E India Row
Boston, MA 2110
(42.357980178866455, -71.05081748194328)"
7-Eleven,464 Hanover St # 17,Boston,MA,2113,"464 Hanover St # 17
Boston, MA 2113
(42.366982392379725, -71.05259813956133)"
7-Eleven,91 Causeway St,Boston,MA,2114,"91 Causeway St
Boston, MA 2114
(42.364849317579676, -71.06226540590795)"
7-Eleven,722 Huntington Ave,Boston,MA,2115,"722 Huntington Ave
Boston, MA 2115
(42.334247070513186, -71.10439009522872)"
7-Eleven,252 W Newton St # 1,Boston,MA,2116,"252 W Newton St # 1
Boston, MA 2116
(42.34483209079809, -71.0810347021278)"
7-Eleven,261 Dartmouth St,Boston,MA,2116,"261 Dartmouth St
Boston, MA 2116
(42.35037907261797, -71.07743885250946)"
7-Eleven,55 Berkeley St,Boston,MA,2116,"55 Berkeley St
Boston, MA 2116
(42.346404298406995, -71.07059747308705)"
7-Eleven,8 Park Plz,Boston,MA,2116,"8 Park Plz
Boston, MA 2116
(42.35203932460155, -71.06724744451978)"
7-Eleven,1306 Washington St,Boston,MA,2118,"1306 Washington St
Boston, MA 2118
(42.34215211115077, -71.0679225869406)"
7-Eleven,1747 Washington St,Boston,MA,2118,"1747 Washington St
Boston, MA 2118
(42.33665725355172, -71.0768888275727)"
7-Eleven,673 E BRd.way,Boston,MA,2127,"673 E BRd.way
Boston, MA 2127
(42.35862999957499, -71.05669999960514)"
7-Eleven,200 Seaport Blvd # 3,Boston,MA,2210,"200 Seaport Blvd # 3
Boston, MA 2210
(42.350058771020294, -71.04165461474597)"
7-Eleven,121 Jersey St,Boston,MA,2215,"121 Jersey St
Boston, MA 2215
(42.3427309376654, -71.09700270945415)"
7-Eleven,508 Park Dr,Boston,MA,2215,"508 Park Dr
Boston, MA 2215
(42.347555753891584, -71.1056310775135)"
7-Eleven,532 Commonwealth Ave,Boston,MA,2215,"532 Commonwealth Ave
Boston, MA 2215
(42.34875313484582, -71.09620626476209)"
A & R Food Svc,253 Summer St,Boston,MA,2210,"253 Summer St
Boston, MA 2210
(42.351535753550934, -71.05311686501481)"
Anthony Market,407 Meridian St,Boston,MA,2128,"407 Meridian St
Boston, MA 2128
(42.38044800470189, -71.03918520466857)"
Berkeley St. Market,56 Berkeley St,Boston,MA,2116,"56 Berkeley St
Boston, MA 2116
(42.34647785011168, -71.07073746489232)"
Boston Mart,42 Court St,Boston,MA,2108,"42 Court St
Boston, MA 2108
(42.35900400362382, -71.0590582114012)"
Boston Variety,59 Causeway St,Boston,MA,2114,"59 Causeway St
Boston, MA 2114
(42.364437311036795, -71.06299430222003)"
Brothers Mini Market,802 Tremont St,Boston,MA,2118,"802 Tremont St
Boston, MA 2118
(42.33867173489739, -71.08146637670183)"
Campus Convenience,700 Albany St,Boston,MA,2118,"700 Albany St
Boston, MA 2118
(42.335667999319526, -71.07039572252114)"
Campus Convenience,275 Babcock St,Boston,MA,2215,"275 Babcock St
Boston, MA 2215
(42.352824652023536, -71.1209473200311)"
Campus Convenience,541 Commonwealth Ave,Boston,MA,2215,"541 Commonwealth Ave
Boston, MA 2215
(42.34899595179371, -71.0969796817073)"
Campus Convenience,702 Commonwealth Ave,Boston,MA,2215,"702 Commonwealth Ave
Boston, MA 2215
(42.3496922011122, -71.10498198925507)"
Christy's Markets Inc,508 Park Dr,Boston,MA,2215,"508 Park Dr
Boston, MA 2215
(42.347555753891584, -71.1056310775135)"
City Convenience,23 Beacon St,Boston,MA,2108,"23 Beacon St
Boston, MA 2108
(42.35807011106937, -71.0623467903589)"
City Convenience,130 Dartmouth St,Boston,MA,2116,"130 Dartmouth St
Boston, MA 2116
(42.3465319379282, -71.07570178208314)"
College Convenience,281 Huntington Ave,Boston,MA,2115,"281 Huntington Ave
Boston, MA 2115
(42.3417024501361, -71.0863766749818)"
Corner Store,270 Hanover St,Boston,MA,2113,"270 Hanover St
Boston, MA 2113
(42.36376281951482, -71.05460362768667)"
Dello Di Inc,372 Commercial St,Boston,MA,2109,"372 Commercial St
Boston, MA 2109
(42.36616400933309, -71.0513211022797)"
Dollar Convenience,55 Temple Pl,Boston,MA,2111,"55 Temple Pl
Boston, MA 2111
(42.35493147718711, -71.06168129205724)"
Downtown Convenience,40 Boylston St,Boston,MA,2116,"40 Boylston St
Boston, MA 2116
(42.35230545686153, -71.06383966492757)"
Downtown Convenience Two,1100 Boylston St,Boston,MA,2215,"1100 Boylston St
Boston, MA 2215
(42.347044422990166, -71.08855303429272)"
E S Variety,3 Gladstone St,Boston,MA,2128,"3 Gladstone St
Boston, MA 2128
(42.38913064376083, -70.99968078696207)"
Express Depot,145 Dartmouth St # 1,Boston,MA,2116,"145 Dartmouth St # 1
Boston, MA 2116
(42.34730522637864, -71.07596252588252)"
Fenway Convenience,76 Kilmarnock St,Boston,MA,2215,"76 Kilmarnock St
Boston, MA 2215
(42.34272038533916, -71.09932903049359)"
First Tennessee Capital Mrkts,99 Summer St,Boston,MA,2110,"99 Summer St
Boston, MA 2110
(42.3537983314302, -71.05823688868503)"
Food Basket,563 Columbus Ave # 1,Boston,MA,2118,"563 Columbus Ave # 1
Boston, MA 2118
(42.340991985732956, -71.08131349195685)"
Gateway Newstand,1 Faneuil Hall Market Pl,Boston,MA,2109,"1 Faneuil Hall Market Pl
Boston, MA 2109
(42.35993170767, -71.05579073276533)"
Golden Goose,179 Commercial St,Boston,MA,2109,"179 Commercial St
Boston, MA 2109
(42.36297062078698, -71.05170270872829)"
Gulf,1420 Boylston St,Boston,MA,2215,"1420 Boylston St
Boston, MA 2215
(42.34331182725526, -71.10223297417795)"
Hemenway Variety,95 Westland Ave,Boston,MA,2115,"95 Westland Ave
Boston, MA 2115
(42.343977447950074, -71.08965307841545)"
Jen's Place,10 Park Plz,Boston,MA,2116,"10 Park Plz
Boston, MA 2116
(42.35188927272095, -71.06719249594379)"
Karen Food Market,41 Bennington St,Boston,MA,2128,"41 Bennington St
Boston, MA 2128
(42.37542702623483, -71.03739959726613)"
Lanzilli's Grocery,931 Bennington St,Boston,MA,2128,"931 Bennington St
Boston, MA 2128
(42.38582318889354, -71.00923283130845)"
Mass Food Market,603 Massachusetts Ave,Boston,MA,2118,"603 Massachusetts Ave
Boston, MA 2118
(42.337223826430204, -71.07801298010935)"
Medina's Market Inc,611 Tremont St,Boston,MA,2118,"611 Tremont St
Boston, MA 2118
(42.34272767724951, -71.07399301063839)"
Monica's Mercato,130 Salem St,Boston,MA,2113,"130 Salem St
Boston, MA 2113
(42.36510280933851, -71.05552992937686)"
Nora's Convenient Store,303 Newbury St,Boston,MA,2115,"303 Newbury St
Boston, MA 2115
(42.34882508060815, -71.0854683597322)"
O'Connell's Convenience Plus,40 Worcester Sq,Boston,MA,2118,"40 Worcester Sq
Boston, MA 2118
(42.33611766033414, -71.07400200385865)"
One Stop Convenience,664 Tremont St,Boston,MA,2118,"664 Tremont St
Boston, MA 2118
(42.3415945314926, -71.07598950554342)"
Primo's Convenience Store,24 Joy St,Boston,MA,2114,"24 Joy St
Boston, MA 2114
(42.35932916191041, -71.06506274288739)"
Priya Food Market,399 Saratoga St,Boston,MA,2128,"399 Saratoga St
Boston, MA 2128
(42.379047252285524, -71.02972119705177)"
Quality Mart,21 Massachusetts Ave,Boston,MA,2115,"21 Massachusetts Ave
Boston, MA 2115
(42.350827063131234, -71.08957078690993)"
Seaport Convenience,451 D St,Boston,MA,2210,"451 D St
Boston, MA 2210
(42.345704433166475, -71.04272358367962)"
Shop MFI Market,170 Salem St,Boston,MA,2113,"170 Salem St
Boston, MA 2113
(42.366190988993935, -71.05490040395631)"
Snack N' Play,19 Staniford St,Boston,MA,2114,"19 Staniford St
Boston, MA 2114
(42.36191730464997, -71.06374745507058)"
Store 24,177 State St # A,Boston,MA,2109,"177 State St # A
Boston, MA 2109
(42.359341980573895, -71.05316659277749)"
Store 24,122 Cambridge St,Boston,MA,2114,"122 Cambridge St
Boston, MA 2114
(42.36112694251017, -71.06349346320631)"
Store 24,141 Massachusetts Ave,Boston,MA,2115,"141 Massachusetts Ave
Boston, MA 2115
(42.346936504346615, -71.08757277328078)"
Store 24,717 Boylston St,Boston,MA,2116,"717 Boylston St
Boston, MA 2116
(42.349382660266315, -71.07997350213321)"
Sulgrave Inc,60 State St,Boston,MA,2109,"60 State St
Boston, MA 2109
(42.35892446699722, -71.05622240733942)"
Sulgrave News,6 Milk St,Boston,MA,2108,"6 Milk St
Boston, MA 2108
(42.3567660941269, -71.05818292936328)"
Symphony Market II Nghbrhd,291 Huntington Ave,Boston,MA,2115,"291 Huntington Ave
Boston, MA 2115
(42.34151032328361, -71.08663877499849)"
Tedeschi Food Shops,50 Staniford St,Boston,MA,2114,"50 Staniford St
Boston, MA 2114
(42.36260771511021, -71.06391412228886)"
Val's Place,10 Causeway St,Boston,MA,2222,"10 Causeway St
Boston, MA 2222
(42.364426269502104, -71.06318792395918)"
Value 2000,507 Washington St,Boston,MA,2111,"507 Washington St
Boston, MA 2111
(42.35440987041011, -71.06159135985433)"
Visham & Son,449 Washington St,Boston,MA,2111,"449 Washington St
Boston, MA 2111
(42.355255233117646, -71.06068304460473)"
White Hen Pantry,342 Hanover St,Boston,MA,2113,"342 Hanover St
Boston, MA 2113
(42.36486898561088, -71.05343450904854)"
White Hen Pantry,250 Cambridge St # 3,Boston,MA,2114,"250 Cambridge St # 3
Boston, MA 2114
(42.361109819528394, -71.06748191914625)"
7-Eleven,1610 Commonwealth Ave,Brighton,MA,2135,"1610 Commonwealth Ave
Brighton, MA 2135
(42.343429148432335, -71.14275517299865)"
7-Eleven,2002 Beacon St,Brighton,MA,2135,"2002 Beacon St
Brighton, MA 2135
(42.33630080638474, -71.15075055747413)"
7-Eleven,584 Washington St,Brighton,MA,2135,"584 Washington St
Brighton, MA 2135
(42.35029097551592, -71.16571486440665)"
Brighton Super Market,572 Washington St,Brighton,MA,2135,"572 Washington St
Brighton, MA 2135
(42.35012010433036, -71.165049366105)"
Chansky Super Market,161 Sutherland Rd,Brighton,MA,2135,"161 Sutherland Rd
Brighton, MA 2135
(42.3408351640262, -71.147243500566)"
Cumberland Farms,148 Chestnut Hill Ave,Brighton,MA,2135,"148 Chestnut Hill Ave
Brighton, MA 2135
(42.342125131489865, -71.1541136102287)"
Huntington Market,1795 Commonwealth Ave,Brighton,MA,2135,"1795 Commonwealth Ave
Brighton, MA 2135
(42.34048836539654, -71.15135269159873)"
Kiki's Kwik-Mart,236 Faneuil St,Brighton,MA,2135,"236 Faneuil St
Brighton, MA 2135
(42.35284887782766, -71.15975674942047)"
Lee's Market,1585 Commonwealth Ave,Brighton,MA,2135,"1585 Commonwealth Ave
Brighton, MA 2135
(42.34445040424109, -71.1428195261644)"
Maddie's Market,2195 Commonwealth Ave,Brighton,MA,2135,"2195 Commonwealth Ave
Brighton, MA 2135
(42.340128805115185, -71.16624497449827)"
Market St. Gulf,195 Market St,Brighton,MA,2135,"195 Market St
Brighton, MA 2135
(42.356019656842534, -71.14921230516899)"
Store 24,1912 Beacon St,Brighton,MA,2135,"1912 Beacon St
Brighton, MA 2135
(42.33650018595136, -71.14871569824254)"
Store 24,241 Market St,Brighton,MA,2135,"241 Market St
Brighton, MA 2135
(42.35452678227392, -71.15015659329976)"
White Hen Pantry,462 Washington St,Brighton,MA,2135,"462 Washington St
Brighton, MA 2135
(42.34891501281106, -71.15883505088254)"
Bunker Hill Market,180 Bunker Hill St,Charlestown,MA,2129,"180 Bunker Hill St
Charlestown, MA 2129
(42.378637605879476, -71.06164531917608)"
Newtowne Foodmart,87 Medford St,Charlestown,MA,2129,"87 Medford St
Charlestown, MA 2129
(42.37918401385763, -71.05596744548801)"
Store 24,1 1st Ave # 7,Charlestown,MA,2129,"1 1st Ave # 7
Charlestown, MA 2129
(42.37355881866903, -71.05678194632321)"
Store 24,140 Main St,Charlestown,MA,2129,"140 Main St
Charlestown, MA 2129
(42.374950385559316, -71.06398355645223)"
Sullivan's Store,2 Sullivan St,Charlestown,MA,2129,"2 Sullivan St
Charlestown, MA 2129
(42.377817621972895, -71.06730610171155)"
United National Market,134 Bunker Hill St,Charlestown,MA,2129,"134 Bunker Hill St
Charlestown, MA 2129
(42.37795412113718, -71.0597027835928)"
Pezzi Service Ctr,571 Washington Ave,Chelsea,MA,2150,"571 Washington Ave
Chelsea, MA 2150
(42.409772134533796, -71.03009710238825)"
7-Eleven,730 William T Morrissey Blvd,Dorchester,MA,2122,"730 William T Morrissey Blvd
Dorchester, MA 2122
(42.296196755453536, -71.04806555653363)"
Adam's Convenience Store,295 Adams St,Dorchester,MA,2122,"295 Adams St
Dorchester, MA 2122
(42.29916026259752, -71.05805971458462)"
Adams Market,365 Adams St,Dorchester,MA,2122,"365 Adams St
Dorchester, MA 2122
(42.2971140639234, -71.05663609547287)"
Bostonian Convenience Store,1464 Dorchester Ave,Dorchester,MA,2122,"1464 Dorchester Ave
Dorchester, MA 2122
(42.300727726675014, -71.0599387438387)"
Braulios Market,237 Bowdoin St,Dorchester,MA,2122,"237 Bowdoin St
Dorchester, MA 2122
(42.305972983667644, -71.06723352015074)"
Cappy's Convenience Store Inc,949 Dorchester Ave,Dorchester,MA,2125,"949 Dorchester Ave
Dorchester, MA 2125
(42.31863484008454, -71.05677099377726)"
Chamas Market,198 Humboldt Ave,Dorchester,MA,2121,"198 Humboldt Ave
Dorchester, MA 2121
(42.31284493935739, -71.08965126825034)"
Columbia Rd. Market II,387 Columbia Rd,Dorchester,MA,2125,"387 Columbia Rd
Dorchester, MA 2125
(42.31110628015811, -71.07022705430786)"
Convenience Corner,1688 Dorchester Ave,Dorchester,MA,2122,"1688 Dorchester Ave
Dorchester, MA 2122
(42.29255775535865, -71.06233524472087)"
Country Store,316 Bowdoin St,Dorchester,MA,2122,"316 Bowdoin St
Dorchester, MA 2122
(42.307923914715616, -71.06526958695417)"
D & D Convenience Store,734 Blue Hill Ave,Dorchester,MA,2121,"734 Blue Hill Ave
Dorchester, MA 2121
(42.299783775920034, -71.08616988748513)"
D & D Convenience Store,1002 Dorchester Ave,Dorchester,MA,2125,"1002 Dorchester Ave
Dorchester, MA 2125
(42.3165079916044, -71.05660927439871)"
Five Corners Mini Mart,1246 Dorchester Ave,Dorchester,MA,2125,"1246 Dorchester Ave
Dorchester, MA 2125
(42.308036000782806, -71.0582674092296)"
Gomez Convenience Store,285 Washington St,Dorchester,MA,2121,"285 Washington St
Dorchester, MA 2121
(42.30072034526091, -71.07571071571431)"
Grove Hill Convenience Market,479 Blue Hill Ave,Dorchester,MA,2121,"479 Blue Hill Ave
Dorchester, MA 2121
(42.30866118751336, -71.08314919016571)"
Happy Superette,122 Seaver St,Dorchester,MA,2121,"122 Seaver St
Dorchester, MA 2121
(42.3097045723336, -71.09171864783588)"
Hillside Spa Cardoza Brothers,26 Hancock St,Dorchester,MA,2125,"26 Hancock St
Dorchester, MA 2125
(42.31503755196735, -71.06590810559493)"
Lee's Store,982 Dorchester Ave,Dorchester,MA,2125,"982 Dorchester Ave
Dorchester, MA 2125
(42.317099517516155, -71.0566249062072)"
Lynch's Everyday,626 Adams St,Dorchester,MA,2122,"626 Adams St
Dorchester, MA 2122
(42.28834279890216, -71.05533638136261)"
Maria's Store,777 Dorchester Ave,Dorchester,MA,2125,"777 Dorchester Ave
Dorchester, MA 2125
(42.32394162621778, -71.05691081765069)"
Mutual Oil Co Inc,529 Geneva Ave,Dorchester,MA,2122,"529 Geneva Ave
Dorchester, MA 2122
(42.29833714188328, -71.06295832933887)"
New Store On the Block,847 Dorchester Ave,Dorchester,MA,2125,"847 Dorchester Ave
Dorchester, MA 2125
(42.3218004536277, -71.05684293953959)"
Our Neighborhood Variety Store,185 Howard Ave,Dorchester,MA,2125,"185 Howard Ave
Dorchester, MA 2125
(42.31393138587134, -71.07529702758086)"
S K B's,156 Washington St,Dorchester,MA,2121,"156 Washington St
Dorchester, MA 2121
(42.304047836769314, -71.07899324112128)"
Stop N Save,310 Blue Hill Ave,Dorchester,MA,2121,"310 Blue Hill Ave
Dorchester, MA 2121
(42.314012324853934, -71.07916411230684)"
Store 24,187 E Cottage St,Dorchester,MA,2125,"187 E Cottage St
Dorchester, MA 2125
(42.32001979600966, -71.06106975307733)"
Super Stop & Shop,460 Blue Hill Ave,Dorchester,MA,2121,"460 Blue Hill Ave
Dorchester, MA 2121
(42.309137229079376, -71.08275736736316)"
Tedeschi Food Shops,1420 Dorchester Ave,Dorchester,MA,2122,"1420 Dorchester Ave
Dorchester, MA 2122
(42.30244535577849, -71.05951859295128)"
Tedeschi Food Shops,1580 Dorchester Ave,Dorchester,MA,2122,"1580 Dorchester Ave
Dorchester, MA 2122
(42.29668720377279, -71.06111873390283)"
Tedeschi Food Shops,320 Neponset Ave,Dorchester,MA,2122,"320 Neponset Ave
Dorchester, MA 2122
(42.288399633459505, -71.04704932264053)"
Tropical Grocery Store,67 Hancock St,Dorchester,MA,2125,"67 Hancock St
Dorchester, MA 2125
(42.31337380621318, -71.06515267509036)"
Vange Variety,434 Blue Hill Ave,Dorchester,MA,2121,"434 Blue Hill Ave
Dorchester, MA 2121
(42.31017221978885, -71.08202395635999)"
Ada's Tropical Inc,118 Norfolk St,Dorchester Ctr,MA,2124,"118 Norfolk St
Dorchester Ctr, MA 2124
(42.28817480295214, -71.07693379367419)"
Ashmont Convenience Store,1996 Dorchester Ave,Dorchester Ctr,MA,2124,"1996 Dorchester Ave
Dorchester Ctr, MA 2124
(42.282615374622594, -71.06511594797291)"
Blue Hill Market,766 Blue Hill Ave,Dorchester Ctr,MA,2124,"766 Blue Hill Ave
Dorchester Ctr, MA 2124
(42.29854135987861, -71.086617565403)"
Codman Square Mkt Grocery Stor,573 Washington St,Dorchester Ctr,MA,2124,"573 Washington St
Dorchester Ctr, MA 2124
(42.29164618598526, -71.07175369878541)"
Dominican Grocery Store,710 Washington St,Dorchester Ctr,MA,2124,"710 Washington St
Dorchester Ctr, MA 2124
(42.28666394194295, -71.07115115302577)"
Mass Food Mart,1732 Dorchester Ave,Dorchester Ctr,MA,2124,"1732 Dorchester Ave
Dorchester Ctr, MA 2124
(42.29084534932588, -71.06280798308995)"
Matos Market,140 Norfolk St,Dorchester Ctr,MA,2124,"140 Norfolk St
Dorchester Ctr, MA 2124
(42.287878026682506, -71.07801298010935)"
Meli Mello Market,542 Washington St,Dorchester Ctr,MA,2124,"542 Washington St
Dorchester Ctr, MA 2124
(42.29282429784365, -71.07178067844626)"
Our Neighborhood Mini Mart,482 Washington St,Dorchester Ctr,MA,2124,"482 Washington St
Dorchester Ctr, MA 2124
(42.29458781253953, -71.07191572292744)"
Rosedale Grocery,547 Washington St,Dorchester Ctr,MA,2124,"547 Washington St
Dorchester Ctr, MA 2124
(42.29254550801454, -71.07182564454774)"
Salcedos Market,302 Norfolk St,Dorchester Ctr,MA,2124,"302 Norfolk St
Dorchester Ctr, MA 2124
(42.283489335179524, -71.08308515635457)"
Stop N Gas Inc,970 Washington St,Dorchester Ctr,MA,2124,"970 Washington St
Dorchester Ctr, MA 2124
(42.279118630117125, -71.06965827845715)"
Store 24,1886 Dorchester Ave,Dorchester Ctr,MA,2124,"1886 Dorchester Ave
Dorchester Ctr, MA 2124
(42.286407837426154, -71.06400965932689)"
T & J Convenience Store,80 Welles Ave,Dorchester Ctr,MA,2124,"80 Welles Ave
Dorchester Ctr, MA 2124
(42.289173261369555, -71.06687420038683)"
Upbeat Convenience,613 Park St,Dorchester Ctr,MA,2124,"613 Park St
Dorchester Ctr, MA 2124
(42.29447905037756, -71.07791405468612)"
Viet Huong Market,1826 Dorchester Ave,Dorchester Ctr,MA,2124,"1826 Dorchester Ave
Dorchester Ctr, MA 2124
(42.28851654532332, -71.06348892933613)"
Cumberland Farms,464 Chelsea St,East Boston,MA,2128,"464 Chelsea St
East Boston, MA 2128
(42.38184885379028, -71.02498470821692)"
El Condor Market,337 Paris St,East Boston,MA,2128,"337 Paris St
East Boston, MA 2128
(42.377576405884895, -71.0316619227192)"
Franco's Place,160 Trenton St,East Boston,MA,2128,"160 Trenton St
East Boston, MA 2128
(42.380101188977534, -71.03338023355548)"
Los Paisanos Market LLC,11 Meridian St,East Boston,MA,2128,"11 Meridian St
East Boston, MA 2128
(42.37054370761575, -71.03891945149564)"
Neptune Convenience & Liquor,3 Neptune Rd,East Boston,MA,2128,"3 Neptune Rd
East Boston, MA 2128
(42.37996126014139, -71.02551589006805)"
Neptune Launderette,944 Bennington St,East Boston,MA,2128,"944 Bennington St
East Boston, MA 2128
(42.38624819757985, -71.00823603306657)"
Store 24,14 Maverick Sq,East Boston,MA,2128,"14 Maverick Sq
East Boston, MA 2128
(42.369396327769316, -71.03962464580405)"
Sumner Market Inc,345 Sumner St,East Boston,MA,2128,"345 Sumner St
East Boston, MA 2128
(42.366910446617396, -71.03543907524227)"
Tesoro Market,188 Chelsea St,East Boston,MA,2128,"188 Chelsea St
East Boston, MA 2128
(42.37443893118786, -71.03358995670017)"
Todisco's Mobil,470 Meridian St,East Boston,MA,2128,"470 Meridian St
East Boston, MA 2128
(42.382718041084324, -71.03938370816641)"
Two Brothers Market,51 Trenton St,East Boston,MA,2128,"51 Trenton St
East Boston, MA 2128
(42.37839269773639, -71.03764021354458)"
Varied Dades Amy,178 Bennington St,East Boston,MA,2128,"178 Bennington St
East Boston, MA 2128
(42.377306609276104, -71.03261520407028)"
White Hen Pantry,120 Byron St,East Boston,MA,2128,"120 Byron St
East Boston, MA 2128
(42.38382705192493, -71.01644849764489)"
White Hen Pantry,205 Maverick St,East Boston,MA,2128,"205 Maverick St
East Boston, MA 2128
(42.36881502802967, -71.03609047137489)"
Liriano Grocery,1503 River St,Hyde Park,MA,2136,"1503 River St
Hyde Park, MA 2136
(42.25042126416213, -71.13092908831334)"
Neighborhood Convenience Str,994 Hyde Park Ave,Hyde Park,MA,2136,"994 Hyde Park Ave
Hyde Park, MA 2136
(42.265565847135576, -71.1210905053128)"
Riddhi Corp,171 Wolcott Sq,Hyde Park,MA,2136,"171 Wolcott Sq
Hyde Park, MA 2136
(42.23719587516264, -71.13202130726548)"
Riverwood Gas & Convenience,869 River St,Hyde Park,MA,2136,"869 River St
Hyde Park, MA 2136
(42.262310301389505, -71.10883274605345)"
Store 24,1187 Hyde Park Ave,Hyde Park,MA,2136,"1187 Hyde Park Ave
Hyde Park, MA 2136
(42.2580744946315, -71.12360860699482)"
Tedeschi Food Shops,1239 River St,Hyde Park,MA,2136,"1239 River St
Hyde Park, MA 2136
(42.255943101422076, -71.12321290530195)"
Tedeschi Food Shops,695 Truman Hwy,Hyde Park,MA,2136,"695 Truman Hwy
Hyde Park, MA 2136
(42.252246887881654, -71.11879723413807)"
Botanica Anaiza's,610 Centre St,Jamaica Plain,MA,2130,"610 Centre St
Jamaica Plain, MA 2130
(42.314461985868604, -71.11406680026397)"
D & R Supermarkets,180 Hyde Park Ave,Jamaica Plain,MA,2130,"180 Hyde Park Ave
Jamaica Plain, MA 2130
(42.29467690122402, -71.11695362397802)"
Green Elm,536 Centre St,Jamaica Plain,MA,2130,"536 Centre St
Jamaica Plain, MA 2130
(42.316935121449205, -71.11341029518258)"
J & G's Market,274 Hyde Park Ave,Jamaica Plain,MA,2130,"274 Hyde Park Ave
Jamaica Plain, MA 2130
(42.29201404749895, -71.1177121873278)"
J P Variety Store,162 South St,Jamaica Plain,MA,2130,"162 South St
Jamaica Plain, MA 2130
(42.30411078931138, -71.11464236636272)"
Perez Severiano,207 Boylston St,Jamaica Plain,MA,2130,"207 Boylston St
Jamaica Plain, MA 2130
(42.31393138587134, -71.1011885088044)"
Store 24,684 Centre St,Jamaica Plain,MA,2130,"684 Centre St
Jamaica Plain, MA 2130
(42.3119722838793, -71.11417609921867)"
Super Stop & Shop,301 Centre St,Jamaica Plain,MA,2130,"301 Centre St
Jamaica Plain, MA 2130
(42.32291651507302, -71.10371343753673)"
Tedeschi Food Shops,779 Centre St,Jamaica Plain,MA,2130,"779 Centre St
Jamaica Plain, MA 2130
(42.30979313809442, -71.1154587346798)"
Gonzalez Market,1178 Blue Hill Ave,Mattapan,MA,2126,"1178 Blue Hill Ave
Mattapan, MA 2126
(42.28399295551594, -71.0914038851256)"
Hyde Park Market,853 River St,Mattapan,MA,2126,"853 River St
Mattapan, MA 2126
(42.262720469966574, -71.1083559069662)"
La Poula Conveniences,1330 Blue Hill Ave,Mattapan,MA,2126,"1330 Blue Hill Ave
Mattapan, MA 2126
(42.27811034825854, -71.09326436146752)"
Lili's Market,1286 Blue Hill Ave,Mattapan,MA,2126,"1286 Blue Hill Ave
Mattapan, MA 2126
(42.279971216786656, -71.09270747186721)"
No Name Deli & Grocerytwo,1300 Blue Hill Ave,Mattapan,MA,2126,"1300 Blue Hill Ave
Mattapan, MA 2126
(42.279379433505596, -71.09293273257543)"
Step N Out Mart,609 Walk Hill St,Mattapan,MA,2126,"609 Walk Hill St
Mattapan, MA 2126
(42.28107015892067, -71.09781605119451)"
Budget Mart,229 Florence St,Roslindale,MA,2131,"229 Florence St
Roslindale, MA 2131
(42.28562072838895, -71.12015521040234)"
Cummins Fruits & Vegetables,290 Cummins Hwy,Roslindale,MA,2131,"290 Cummins Hwy
Roslindale, MA 2131
(42.279568291131795, -71.11791589854937)"
Downtown Brazil,878 South St,Roslindale,MA,2131,"878 South St
Roslindale, MA 2131
(42.28878634193211, -71.13385188490855)"
El Chavo Mexican Products,4254 Washington St,Roslindale,MA,2131,"4254 Washington St
Roslindale, MA 2131
(42.28545450938999, -71.12909959035171)"
T & D Market,4545 Washington St,Roslindale,MA,2131,"4545 Washington St
Roslindale, MA 2131
(42.278175816233826, -71.13723739125055)"
Blue Hill Convenience,137 Blue Hill Ave # B,Roxbury,MA,2119,"137 Blue Hill Ave # B
Roxbury, MA 2119
(42.32019966041554, -71.07781512926289)"
Bohio Grocery & Snacks,718 Shawmut Ave,Roxbury,MA,2119,"718 Shawmut Ave
Roxbury, MA 2119
(42.33305996543453, -71.08314810889664)"
Casa Blanca Convenience Store,41 Burrell St,Roxbury,MA,2119,"41 Burrell St
Roxbury, MA 2119
(42.32299168897712, -71.07036188835214)"
Central Convenience,218 Blue Hill Ave,Roxbury,MA,2119,"218 Blue Hill Ave
Roxbury, MA 2119
(42.31703404687238, -71.07801298010935)"
Chi Chi Produce Market,2251 Washington St,Roxbury,MA,2119,"2251 Washington St
Roxbury, MA 2119
(42.33069559042983, -71.0832564186872)"
Egleston Square Citgo,3055 Washington St,Roxbury,MA,2119,"3055 Washington St
Roxbury, MA 2119
(42.31632358246924, -71.09782504441483)"
Giovanni's Market,624 Columbus Ave,Roxbury,MA,2118,"624 Columbus Ave
Roxbury, MA 2118
(42.339295494795365, -71.08322926745511)"
La Plazita,3 Blue Hill Ave,Roxbury,MA,2119,"3 Blue Hill Ave
Roxbury, MA 2119
(42.32523288394556, -71.07512159010693)"
Market Maywood,249 Blue Hill Ave,Roxbury,MA,2119,"249 Blue Hill Ave
Roxbury, MA 2119
(42.31609875196193, -71.07823781061666)"
Mini Market,64 Blue Hill Ave,Roxbury,MA,2119,"64 Blue Hill Ave
Roxbury, MA 2119
(42.32294259260493, -71.07659205130307)"
N & M Market,2359 Washington St,Roxbury,MA,2119,"2359 Washington St
Roxbury, MA 2119
(42.329444690876755, -71.0847489021088)"
Nunez Mini Mart,305 Dudley St,Roxbury,MA,2119,"305 Dudley St
Roxbury, MA 2119
(42.32782591122401, -71.07759029875558)"
On the Run,85 Southampton St,Roxbury,MA,2118,"85 Southampton St
Roxbury, MA 2118
(42.33213469829626, -71.07055805784337)"
Quick Stop,338 Warren St,Roxbury,MA,2119,"338 Warren St
Roxbury, MA 2119
(42.31924637906451, -71.0813944309395)"
Grocery Associates,82 Hillside St,Roxbury Crossing,MA,2120,"82 Hillside St
Roxbury Crossing, MA 2120
(42.33044842713316, -71.10303802994673)"
Penas Market,1055 Tremont St,Roxbury Crossing,MA,2120,"1055 Tremont St
Roxbury Crossing, MA 2120
(42.336261551858854, -71.08586406142513)"
Andrew Square Convenience,390 Dorchester St # A,South Boston,MA,2127,"390 Dorchester St # A
South Boston, MA 2127
(42.32984039256962, -71.05646522428731)"
Cumberland Farms,628 E 5th St,South Boston,MA,2127,"628 E 5th St
South Boston, MA 2127
(42.333986267124715, -71.0355110210046)"
EVS Mini Mart,334 Dorchester St,South Boston,MA,2127,"334 Dorchester St
South Boston, MA 2127
(42.33098253154685, -71.05402806158793)"
J & J Discount Mini Mart,131 W BRd.way,South Boston,MA,2127,"131 W BRd.way
South Boston, MA 2127
(42.337950000092576, -71.04948000030163)"
Mirisolas,200 L St,South Boston,MA,2127,"200 L St
South Boston, MA 2127
(42.331369240019455, -71.03522323795522)"
Store 24,405 W BRd.way,South Boston,MA,2127,"405 W BRd.way
South Boston, MA 2127
(42.337950000092576, -71.04948000030163)"
Store 24,555 E BRd.way,South Boston,MA,2127,"555 E BRd.way
South Boston, MA 2127
(42.337950000092576, -71.04948000030163)"
Tedeschi Food Shops,566 Dorchester Ave,South Boston,MA,2127,"566 Dorchester Ave
South Boston, MA 2127
(42.330308040024875, -71.05690589208166)"
Three D's,249 E St,South Boston,MA,2127,"249 E St
South Boston, MA 2127
(42.33586585016593, -71.05159089888849)"
Charley Market,604 Weld St,West Roxbury,MA,2132,"604 Weld St
West Roxbury, MA 2132
(42.29164618598526, -71.15780083054881)"
Speedy Market,4899 Washington St,West Roxbury,MA,2132,"4899 Washington St
West Roxbury, MA 2132
(42.269307409207606, -71.1483792159798)"
Spring St. Petroleum,167 Spring St,West Roxbury,MA,2132,"167 Spring St
West Roxbury, MA 2132
(42.27576415894782, -71.16726169829707)"
Tedeschi Food Stores,7 Spring St,West Roxbury,MA,2132,"7 Spring St
West Roxbury, MA 2132
(42.27817434198636, -71.16035490511206)"
Bolster Service Inc,81 Veterans Rd,Winthrop,MA,2152,"81 Veterans Rd
Winthrop, MA 2152
(42.380804971970065, -70.97576905859819)"
