Store,Address,Area,State,Zip,Coordinates,Location
America's Food Basket,217 Bowdoin Street,Dorchester,MA,2122,"42.305959,-71.06751","217 Bowdoin Street
Dorchester, MA
(42.30786999970087, -71.06340000010977)"
Ramirez Grocery,481 Geneva Avenue,Dorchester,MA,2122,"42.299738,-71.064742","481 Geneva Avenue
Dorchester, MA
(42.30786999970087, -71.06340000010977)"
Sobrino Market,416 Geneva Avenue,Dorchester,MA,2122,"42.30104,-71.067424","416 Geneva Avenue
Dorchester, MA
(42.30786999970087, -71.06340000010977)"
Cruz Market,237 Bowdoin Street,Dorchester,MA,2122,"42.306047,-71.067418","237 Bowdoin Street
Dorchester, MA
(42.30786999970087, -71.06340000010977)"
Tio Supermarket,9 Meridian St,East Boston,MA,2128,"42.3704915,-71.0389462","9 Meridian St
East Boston, MA
(42.378460000328914, -71.02881000038104)"
Million Market,99 Chelsea St,East Boston,MA,2128,"42.3723452,-71.0357756","99 Chelsea St
East Boston, MA
(42.378460000328914, -71.02881000038104)"
El Paisa Butchery,1010 Bennington St,East Boston,MA,2128,"42.3868595,-71.0063494","1010 Bennington St
East Boston, MA
(42.378460000328914, -71.02881000038104)"
Two Brothers Market,75 Marion St,East Boston,MA,2128,"42.3783247,-71.0376383","75 Marion St
East Boston, MA
(42.378460000328914, -71.02881000038104)"
Raymond Market,351 Meridian St,East Boston,MA,2128,"42.3785572,-71.0389671","351 Meridian St
East Boston, MA
(42.378460000328914, -71.02881000038104)"
Mi Tierra Market,71 Meridian St,East Boston,MA,2128,"42.3719373,-71.0389997","71 Meridian St
East Boston, MA
(42.378460000328914, -71.02881000038104)"
Condor Market East Boston, 655 Saratoga Street,East Boston,MA,2128,"42.382387,-71.020753","655 Saratoga Street
East Boston, MA
(42.378460000328914, -71.02881000038104)"
Las Costas Market,184 Bremen Street,East Boston,MA,2128,"42.373082,-71.034229","184 Bremen Street
East Boston, MA
(42.378460000328914, -71.02881000038104)"
Mama Supermarket,1178 Blue Hill Ave,Mattapan,MA,2126,"42.2841462,-71.0912407","1178 Blue Hill Ave
Mattapan, MA
(42.28399295551594, -71.0914038851256)"
Essential Body Herbs,1282 Blue Hill Ave,Mattapan,MA,2126,"42.280293,-71.092465","1282 Blue Hill Ave
Mattapan, MA
(42.28020680977255, -71.09266293596664)"
Worlds Best Food Market,645 River St,Mattapan,MA,2126,"42.265035,-71.099628","645 River St
Mattapan, MA
(42.264945314935346, -71.09953375627049)"
Mattapan Square Mobile,1556 Blue Hill Ave,Mattapan,MA,2126,"42.270576,-71.093275","1556 Blue Hill Ave
Mattapan, MA
(42.27026030812851, -71.09355326477566)"
